{
  "type": "FeatureCollection",
  "features": [
    {
      "type": "Feature",
      "properties": {
        "norad_id": 29268,
        "name": "ARIRANG-2 (KOMPSAT-2)",
        "group": "resource",
        "lat": 58.3609077319145,
        "lon": -1.848465455021365,
        "alt_km": 680.3981964002651,
        "timestamp": "2025-12-02T06:27:52.677585+00:00",
        "meta_object_name": "ARIRANG-2 (KOMPSAT-2)",
        "meta_object_id": "2006-031A",
        "meta_epoch": "2025-12-01T20:36:30.070368",
        "meta_mean_motion": 14.64477453,
        "meta_eccentricity": 0.0014111,
        "meta_inclination": 97.8265,
        "meta_ra_of_asc_node": 164.8619,
        "meta_arg_of_pericenter": 345.0555,
        "meta_mean_anomaly": 131.6878,
        "meta_ephemeris_type": 0,
        "meta_classification_type": "U",
        "meta_norad_cat_id": 29268,
        "meta_element_set_no": 999,
        "meta_rev_at_epoch": 3259,
        "meta_bstar": 9.1393e-05,
        "meta_mean_motion_dot": 4.4e-06,
        "meta_mean_motion_ddot": 0,
        "tle_line1": "1 29268U 06031A   25335.85868137  .00000440  00000+0  91393-4 0  9997",
        "tle_line2": "2 29268  97.8265 164.8619 0014111 345.0555 131.6878 14.64477453 32594"
      },
      "geometry": {
        "type": "Point",
        "coordinates": [
          -1.848465455021365,
          58.3609077319145
        ]
      }
    },
    {
      "type": "Feature",
      "properties": {
        "norad_id": 29709,
        "name": "LAPAN-TUBSAT",
        "group": "resource",
        "lat": -22.012344026292286,
        "lon": -30.477901761258188,
        "alt_km": 622.6637896702223,
        "timestamp": "2025-12-02T06:27:52.677596+00:00",
        "meta_object_name": "LAPAN-TUBSAT",
        "meta_object_id": "2007-001A",
        "meta_epoch": "2025-12-01T20:51:57.570912",
        "meta_mean_motion": 14.85643264,
        "meta_eccentricity": 0.0013567,
        "meta_inclination": 98.1251,
        "meta_ra_of_asc_node": 325.8029,
        "meta_arg_of_pericenter": 106.2693,
        "meta_mean_anomaly": 254.0014,
        "meta_ephemeris_type": 0,
        "meta_classification_type": "U",
        "meta_norad_cat_id": 29709,
        "meta_element_set_no": 999,
        "meta_rev_at_epoch": 2185,
        "meta_bstar": 9.3658e-05,
        "meta_mean_motion_dot": 7.55e-06,
        "meta_mean_motion_ddot": 0,
        "tle_line1": "1 29709U 07001A   25335.86941633  .00000755  00000+0  93658-4 0  9994",
        "tle_line2": "2 29709  98.1251 325.8029 0013567 106.2693 254.0014 14.85643264 21858"
      },
      "geometry": {
        "type": "Point",
        "coordinates": [
          -30.477901761258188,
          -22.012344026292286
        ]
      }
    },
    {
      "type": "Feature",
      "properties": {
        "norad_id": 31113,
        "name": "HAIYANG-1B",
        "group": "resource",
        "lat": 56.999341266881146,
        "lon": 154.02016672904819,
        "alt_km": 777.0420502218776,
        "timestamp": "2025-12-02T06:27:52.677606+00:00",
        "meta_object_name": "HAIYANG-1B",
        "meta_object_id": "2007-010A",
        "meta_epoch": "2025-12-01T19:49:44.090400",
        "meta_mean_motion": 14.30958911,
        "meta_eccentricity": 0.0014618,
        "meta_inclination": 98.3307,
        "meta_ra_of_asc_node": 320.5558,
        "meta_arg_of_pericenter": 68.1277,
        "meta_mean_anomaly": 292.146,
        "meta_ephemeris_type": 0,
        "meta_classification_type": "U",
        "meta_norad_cat_id": 31113,
        "meta_element_set_no": 999,
        "meta_rev_at_epoch": 97240,
        "meta_bstar": 6.7405e-05,
        "meta_mean_motion_dot": 1.36e-06,
        "meta_mean_motion_ddot": 0,
        "tle_line1": "1 31113U 07010A   25335.82620475  .00000136  00000+0  67405-4 0  9994",
        "tle_line2": "2 31113  98.3307 320.5558 0014618  68.1277 292.1460 14.30958911972407"
      },
      "geometry": {
        "type": "Point",
        "coordinates": [
          154.02016672904819,
          56.999341266881146
        ]
      }
    },
    {
      "type": "Feature",
      "properties": {
        "norad_id": 31598,
        "name": "COSMO-SKYMED 1",
        "group": "resource",
        "lat": -80.02855460877157,
        "lon": -146.37783670153635,
        "alt_km": 588.7700896816941,
        "timestamp": "2025-12-02T06:27:52.677617+00:00",
        "meta_object_name": "COSMO-SKYMED 1",
        "meta_object_id": "2007-023A",
        "meta_epoch": "2025-12-01T19:35:58.947072",
        "meta_mean_motion": 14.95637522,
        "meta_eccentricity": 0.0001531,
        "meta_inclination": 97.8847,
        "meta_ra_of_asc_node": 161.1449,
        "meta_arg_of_pericenter": 84.2781,
        "meta_mean_anomaly": 275.8614,
        "meta_ephemeris_type": 0,
        "meta_classification_type": "U",
        "meta_norad_cat_id": 31598,
        "meta_element_set_no": 999,
        "meta_rev_at_epoch": 27,
        "meta_bstar": 0.0003781,
        "meta_mean_motion_dot": 4.143e-05,
        "meta_mean_motion_ddot": 0,
        "tle_line1": "1 31598U 07023A   25335.81665448  .00004143  00000+0  37810-3 0  9991",
        "tle_line2": "2 31598  97.8847 161.1449 0001531  84.2781 275.8614 14.95637522   273"
      },
      "geometry": {
        "type": "Point",
        "coordinates": [
          -146.37783670153635,
          -80.02855460877157
        ]
      }
    },
    {
      "type": "Feature",
      "properties": {
        "norad_id": 31698,
        "name": "TERRASAR-X",
        "group": "resource",
        "lat": 49.45980306503173,
        "lon": 170.5976394345643,
        "alt_km": 502.9987300202856,
        "timestamp": "2025-12-02T06:27:52.677628+00:00",
        "meta_object_name": "TERRASAR-X",
        "meta_object_id": "2007-026A",
        "meta_epoch": "2025-12-01T15:40:02.654400",
        "meta_mean_motion": 15.19150274,
        "meta_eccentricity": 0.00019062,
        "meta_inclination": 97.4444,
        "meta_ra_of_asc_node": 341.1963,
        "meta_arg_of_pericenter": 89.1201,
        "meta_mean_anomaly": 271.0252,
        "meta_ephemeris_type": 0,
        "meta_classification_type": "U",
        "meta_norad_cat_id": 31698,
        "meta_element_set_no": 999,
        "meta_rev_at_epoch": 2323,
        "meta_bstar": 7.6522775e-05,
        "meta_mean_motion_dot": 1.54e-05,
        "meta_mean_motion_ddot": 0,
        "tle_line1": "1 31698U 07026A   25335.65280850  .00001540  00000+0  76523-4 0  9990",
        "tle_line2": "2 31698  97.4444 341.1963 0001906  89.1201 271.0252 15.19150274 23239"
      },
      "geometry": {
        "type": "Point",
        "coordinates": [
          170.5976394345643,
          49.45980306503173
        ]
      }
    },
    {
      "type": "Feature",
      "properties": {
        "norad_id": 32060,
        "name": "WORLDVIEW-1 (WV-1)",
        "group": "resource",
        "lat": -70.72803263730646,
        "lon": 115.6684378315614,
        "alt_km": 500.3565380897944,
        "timestamp": "2025-12-02T06:27:52.677638+00:00",
        "meta_object_name": "WORLDVIEW-1 (WV-1)",
        "meta_object_id": "2007-041A",
        "meta_epoch": "2025-12-01T19:45:10.793376",
        "meta_mean_motion": 15.24402666,
        "meta_eccentricity": 7.48e-05,
        "meta_inclination": 97.3832,
        "meta_ra_of_asc_node": 93.46,
        "meta_arg_of_pericenter": 91.8186,
        "meta_mean_anomaly": 268.3137,
        "meta_ephemeris_type": 0,
        "meta_classification_type": "U",
        "meta_norad_cat_id": 32060,
        "meta_element_set_no": 999,
        "meta_rev_at_epoch": 1281,
        "meta_bstar": 0.00037999,
        "meta_mean_motion_dot": 9.247e-05,
        "meta_mean_motion_ddot": 0,
        "tle_line1": "1 32060U 07041A   25335.82304159  .00009247  00000+0  37999-3 0  9994",
        "tle_line2": "2 32060  97.3832  93.4600 0000748  91.8186 268.3137 15.24402666 12817"
      },
      "geometry": {
        "type": "Point",
        "coordinates": [
          115.6684378315614,
          -70.72803263730646
        ]
      }
    },
    {
      "type": "Feature",
      "properties": {
        "norad_id": 32289,
        "name": "YAOGAN-3",
        "group": "resource",
        "lat": -12.900257220240743,
        "lon": 4.797584736288571,
        "alt_km": 603.1669562305569,
        "timestamp": "2025-12-02T06:27:52.677649+00:00",
        "meta_object_name": "YAOGAN-3",
        "meta_object_id": "2007-055A",
        "meta_epoch": "2025-12-01T20:51:03.931200",
        "meta_mean_motion": 14.89771208,
        "meta_eccentricity": 0.0001532,
        "meta_inclination": 97.8381,
        "meta_ra_of_asc_node": 2.5926,
        "meta_arg_of_pericenter": 76.996,
        "meta_mean_anomaly": 283.1428,
        "meta_ephemeris_type": 0,
        "meta_classification_type": "U",
        "meta_norad_cat_id": 32289,
        "meta_element_set_no": 999,
        "meta_rev_at_epoch": 97647,
        "meta_bstar": 0.00026042,
        "meta_mean_motion_dot": 2.441e-05,
        "meta_mean_motion_ddot": 0,
        "tle_line1": "1 32289U 07055A   25335.86879550  .00002441  00000+0  26042-3 0  9994",
        "tle_line2": "2 32289  97.8381   2.5926 0001532  76.9960 283.1428 14.89771208976472"
      },
      "geometry": {
        "type": "Point",
        "coordinates": [
          4.797584736288571,
          -12.900257220240743
        ]
      }
    }
  ]
}